NORAD_CAT_ID,OBJECT_NAME,OBJECT_TYPE,EPOCH,MEAN_MOTION,ECCENTRICITY,INCLINATION,RA_OF_ASC_NODE,ARG_OF_PERICENTER,MEAN_ANOMALY,BSTAR,MEAN_MOTION_DOT,MEAN_MOTION_DDOT,TLE_LINE0,TLE_LINE1,TLE_LINE2,SEMIMAJOR_AXIS,PERIOD,APOGEE,PERIGEE,DECAYED
52688.0,STARLINK-4032,PAYLOAD,2022-07-28 08:00:01,15.209109,0.0001754,53.2177,311.6413,36.6085,7.7909,-0.051811,-0.01062464,0.0,0 STARLINK-4032,1 52688U 22053AJ  22209.33334491 -.01062464  00000-0 -51811-1 0  9998,2 52688  53.2177 311.6413 0001754  36.6085   7.7909 15.20910900 11416,6881.229,94.68,504.301,501.887,0.0
52688.0,STARLINK-4032,PAYLOAD,2022-07-28 14:00:01,15.20342391,0.000175,53.2175,310.5002,38.0793,295.6316,-0.052795,-0.01064499,0.0,0 STARLINK-4032,1 52688U 22053AJ  22209.58334491 -.01064499  00000-0 -52795-1 0  9997,2 52688  53.2175 310.5002 0001750  38.0793 295.6316 15.20342391  1304,6882.944,94.716,506.014,503.605,0.0
52688.0,STARLINK-4032,PAYLOAD,2022-07-28 22:00:00,15.19583706,0.0001723,53.2174,308.9774,36.0936,322.5698,-0.054085,-0.01066353,0.0,0 STARLINK-4032,1 52688U 22053AJ  22209.91667824 -.01066353  00000-0 -54085-1 0  9998,2 52688  53.2174 308.9774 0001723  36.0936 322.5698 15.19583706  1305,6885.235,94.763,508.286,505.913,0.0
52688.0,STARLINK-4032,PAYLOAD,2022-07-29 06:00:00,15.18820697,0.0001661,53.2176,307.4563,39.3837,343.3205,-0.054937,-0.01059872,0.0,0 STARLINK-4032,1 52688U 22053AJ  22210.25001157 -.01059872  00000-0 -54937-1 0  9992,2 52688  53.2176 307.4563 0001661  39.3837 343.3205 15.18820697 11559,6887.541,94.81,510.55,508.262,0.0
52688.0,STARLINK-4032,PAYLOAD,2022-07-29 14:00:01,15.1806492,0.0001816,53.2176,305.9397,37.0092,8.8193,-0.056516,-0.01079668,0.0,0 STARLINK-4032,1 52688U 22053AJ  22210.58334491 -.01079668  00000-0 -56516-1 0  9998,2 52688  53.2176 305.9397 0001816  37.0092   8.8193 15.18064920  1307,6889.826,94.858,512.943,510.44,0.0
52688.0,STARLINK-4032,PAYLOAD,2022-07-29 22:00:00,15.17303904,0.0001675,53.2174,304.4221,41.2352,26.8086,-0.057641,-0.01077356,0.0,0 STARLINK-4032,1 52688U 22053AJ  22210.91667824 -.01077356  00000-0 -57641-1 0  9996,2 52688  53.2174 304.4221 0001675  41.2352  26.8086 15.17303904  1302,6892.13,94.905,515.149,512.841,0.0
52688.0,STARLINK-4032,PAYLOAD,2022-07-30 06:00:00,15.16542711,0.0001682,53.2176,302.9063,44.8436,44.5023,-0.0587049999999999,-0.01073748,0.0,0 STARLINK-4032,1 52688U 22053AJ  22211.25001157 -.01073748  00000-0 -58705-1 0  9998,2 52688  53.2176 302.9063 0001682  44.8436  44.5023 15.16542711 11704,6894.436,94.953,517.461,515.141,0.0
52688.0,STARLINK-4032,PAYLOAD,2022-07-30 14:00:01,15.1578572,0.0001883,53.2176,301.3952,40.3802,69.3524,-0.06027,-0.01078392,0.0,0 STARLINK-4032,1 52688U 22053AJ  22211.58334491 -.01078392  00000-0 -60270-1 0  9994,2 52688  53.2176 301.3952 0001883  40.3802  69.3524 15.15785720  1309,6896.731,95.0,519.895,517.298,0.0
52688.0,STARLINK-4032,PAYLOAD,2022-07-30 22:00:00,15.15024811,0.000172,53.2174,299.8828,45.7624,83.4475,-0.061446,-0.01075976,0.0,0 STARLINK-4032,1 52688U 22053AJ  22211.91667824 -.01075976  00000-0 -61446-1 0  9991,2 52688  53.2174 299.8828 0001720  45.7624  83.4475 15.15024811  1300,6899.04,95.048,522.092,519.719,0.0
52688.0,STARLINK-4032,PAYLOAD,2022-07-31 06:00:02,15.14264699,0.0001737,53.2177,298.3725,49.0084,98.8282,-0.062683,-0.01074315,0.0,0 STARLINK-4032,1 52688U 22053AJ  22212.25002315 -.01074315  00000-0 -62683-1 0  9997,2 52688  53.2177 298.3725 0001737  49.0084  98.8282 15.14264699 11865,6901.349,95.096,524.413,522.015,0.0
52688.0,STARLINK-4032,PAYLOAD,2022-07-31 14:00:01,15.1350562,0.0001947,53.2176,296.8667,41.8077,123.6152,-0.064113,-0.01075425,0.0,0 STARLINK-4032,1 52688U 22053AJ  22212.58334491 -.01075425  00000-0 -64113-1 0  9999,2 52688  53.2176 296.8667 0001947  41.8077 123.6152 15.13505620  1309,6903.656,95.143,526.865,524.177,0.0
52688.0,STARLINK-4032,PAYLOAD,2022-07-31 22:00:00,15.12746452,0.0001728,53.2175,295.3594,48.8557,133.306,-0.065539,-0.01075991,0.0,0 STARLINK-4032,1 52688U 22053AJ  22212.91667824 -.01075991  00000-0 -65539-1 0  9996,2 52688  53.2175 295.3594 0001728  48.8557 133.3060 15.12746452  1303,6905.965999999999,95.191,529.024,526.637,0.0
52688.0,STARLINK-4032,PAYLOAD,2022-08-01 04:00:00,15.12175357,0.0001751,53.2174,294.2301,43.4242,60.6931,-0.066466,-0.01074011,0.0,0 STARLINK-4032,1 52688U 22053AJ  22213.16667824 -.01074011  00000-0 -66466-1 0  9996,2 52688  53.2174 294.2301 0001751  43.4242  60.6931 15.12175357 11999,6907.704000000002,95.227,530.779,528.36,0.0
52688.0,STARLINK-4032,PAYLOAD,2022-08-01 14:00:01,15.11225962,0.000199,53.2175,292.3540000000001,40.4401,172.4591,-0.06819,-0.01073116,0.0,0 STARLINK-4032,1 52688U 22053AJ  22213.58334491 -.01073116  00000-0 -68190-1 0  9994,2 52688  53.2175 292.3540 0001990  40.4401 172.4591 15.11225962  1308,6910.597,95.287,533.837,531.087,0.0
52688.0,STARLINK-4032,PAYLOAD,2022-08-01 22:00:00,15.1046872,0.000168,53.2175,290.8519,52.4002,174.4992,-0.069941,-0.01077326,0.0,0 STARLINK-4032,1 52688U 22053AJ  22213.91667824 -.01077326  00000-0 -69941-1 0  9992,2 52688  53.2175 290.8519 0001680  52.4002 174.4992 15.10468720  1300,6912.906999999997,95.335,535.933,533.61,0.0
52688.0,STARLINK-4032,PAYLOAD,2022-08-02 06:00:02,15.09598181,0.0001788,53.2175,289.3524,51.734,188.3361,-0.05045,-0.00760005,0.0,0 STARLINK-4032,1 52688U 22053AJ  22214.25002315 -.00760005  00000-0 -50450-1 0  9995,2 52688  53.2175 289.3524 0001788  51.7340 188.3361 15.09598181 12168,6915.564,95.39,538.665,536.192,0.0
52688.0,STARLINK-4032,PAYLOAD,2022-08-02 14:00:01,15.08941219,0.0001815,53.2175,287.8568,51.0787,201.1155,-0.01037,-0.00162089,0.0,0 STARLINK-4032,1 52688U 22053AJ  22214.58334491 -.00162089  00000-0 -10370-1 0  9999,2 52688  53.2175 287.8568 0001815  51.0787 201.1155 15.08941219  1300,6917.571,95.431,540.692,538.18,0.0
52688.0,STARLINK-4032,PAYLOAD,2022-08-03 06:00:00,15.08876455,0.0001798,53.2142,284.8547,44.7955,230.6427,-0.0017024,-0.00027307,0.0,0 STARLINK-4032,1 52688U 22053AJ  22215.25001157 -.00027307  00000-0 -17024-2 0  9991,2 52688  53.2142 284.8547 0001798  44.7955 230.6427 15.08876455 12315,6917.769,95.435,540.878,538.39,0.0
52688.0,STARLINK-4032,PAYLOAD,2022-08-03 14:00:01,15.08829207,0.0002012,53.2144,283.3598,38.586,248.4951,0.0015782,0.00024911,0.0,0 STARLINK-4032,1 52688U 22053AJ  22215.58334491  .00024911  00000-0  15782-2 0  9992,2 52688  53.2144 283.3598 0002012  38.5860 248.4951 15.08829207  1302,6917.913000000001,95.438,541.17,538.386,0.0
52688.0,STARLINK-4032,PAYLOAD,2022-08-03 22:00:01,15.08848169,0.0001883,53.2146,281.8617,40.7263,258.013,-0.0032729,-0.00052013,0.0,0 STARLINK-4032,1 52688U 22053AJ  22215.91668981 -.00052013  00000-0 -32729-2 0  9999,2 52688  53.2146 281.8617 0001883  40.7263 258.0130 15.08848169  1300,6917.855,95.437,541.023,538.418,0.0
52688.0,STARLINK-4032,PAYLOAD,2022-08-04 14:00:01,15.08798663,0.0002104,53.2148,278.8702,40.7296,281.0984,0.0023016,0.00036491,0.0,0 STARLINK-4032,1 52688U 22053AJ  22216.58334491  .00036491  00000-0  23016-2 0  9998,2 52688  53.2148 278.8702 0002104  40.7296 281.0984 15.08798663 12517,6918.007,95.44,541.327,538.4159999999998,0.0
52688.0,STARLINK-4032,PAYLOAD,2022-08-04 22:00:00,15.08825104,0.0001940999999999,53.2149,277.3722,42.9784,290.418,-0.0004578,-7.564e-05,0.0,0 STARLINK-4032,1 52688U 22053AJ  22216.91667824 -.00007564  00000-0 -45780-3 0  9998,2 52688  53.2149 277.3722 0001941  42.9784 290.4180 15.08825104  1306,6917.926,95.438,541.134,538.448,0.0
52688.0,STARLINK-4032,PAYLOAD,2022-08-05 06:00:02,15.08841053,0.0001921999999999,53.2151,275.8757,45.4709,299.557,-0.00092279,-0.00014945,0.0,0 STARLINK-4032,1 52688U 22053AJ  22217.25002315 -.00014945  00000-0 -92279-3 0  9990,2 52688  53.2151 275.8757 0001922  45.4709 299.5570 15.08841053 12614,6917.877,95.437,541.072,538.413,0.0
52688.0,STARLINK-4032,PAYLOAD,2022-08-05 14:00:01,15.08810352,0.0002109,53.215,274.3808,40.8828,315.74,0.0025496,0.0004049,0.0,0 STARLINK-4032,1 52688U 22053AJ  22217.58335648  .00040490  00000-0  25496-2 0  9992,2 52688  53.2150 274.3808 0002109  40.8828 315.7400 15.08810352  1308,6917.971,95.439,541.295,538.377,0.0
52688.0,STARLINK-4032,PAYLOAD,2022-08-05 22:00:00,15.08830734,0.0001931,53.215,272.8828,44.0116,324.131,0.00019543,2.823e-05,0.0,0 STARLINK-4032,1 52688U 22053AJ  22217.91667824  .00002823  00000-0  19543-3 0  9998,2 52688  53.2150 272.8828 0001931  44.0116 324.1310 15.08830734  1301,6917.909000000002,95.438,541.11,538.438,0.0
52688.0,STARLINK-4032,PAYLOAD,2022-08-06 06:00:00,15.08853493,0.000193,53.2151,271.3866,45.8,333.9207,-0.0013746,-0.00022107,0.0,0 STARLINK-4032,1 52688U 22053AJ  22218.25001157 -.00022107  00000-0 -13746-2 0  9994,2 52688  53.2151 271.3866 0001930  45.8000 333.9207 15.08853493 12760,6917.839,95.437,541.039,538.369,0.0
52688.0,STARLINK-4032,PAYLOAD,2022-08-06 12:16:21,15.08827579,0.0001995,53.2152,270.2138,44.4721,315.6431,0.00010345,1.358e-05,0.0,0 STARLINK-4032,1 52688U 22053AJ  22218.51136250  .00001358  00000-0  10345-3 0  9992,2 52688  53.2152 270.2138 0001995  44.4721 315.6431 15.08827579 13175,6917.918000000002,95.438,541.163,538.403,0.0
52688.0,STARLINK-4032,PAYLOAD,2022-08-06 20:13:17,15.08830869,0.0002019,53.2152,268.7271,44.5803,315.5351,0.00010571,1.394e-05,0.0,0 STARLINK-4032,1 52688U 22053AJ  22218.84256282  .00001394  00000-0  10571-3 0  9997,2 52688  53.2152 268.7271 0002019  44.5803 315.5351 15.08830869 13227,6917.908,95.438,541.17,538.377,0.0
52688.0,STARLINK-4032,PAYLOAD,2022-08-07 06:00:00,15.08861474,0.0001954,53.2147,266.8976,46.7106,7.7944,-0.0017957999999999,-0.00028772,0.0,0 STARLINK-4032,1 52688U 22053AJ  22219.25001157 -.00028772  00000-0 -17958-2 0  9998,2 52688  53.2147 266.8976 0001954  46.7106   7.7944 15.08861474 12918,6917.815,95.436,541.031,538.328,0.0
